ESTCUBE 1               
1 39161U 13021C   21251.45408264  .00000164  00000-0  33464-4 0  9996
2 39161  97.9362 330.7259 0008347 242.9940 117.0428 14.72524233447965
FENGYUN 3C              
1 39260U 13052A   21251.38168161 -.00000002  00000-0  19742-4 0  9996
2 39260  98.4923 288.2692 0011399  13.9889 346.1605 14.15876807412004
CASSIOPE                
1 39265U 13055A   21251.13789031  .00008144  00000-0  22288-3 0  9994
2 39265  80.9673 205.2253 0647567  71.0292 295.9894 14.32824167411814
ZACUBE-1 (TSHEPISOSAT)  
1 39417U 13066B   21250.50893974  .00000343  00000-0  49110-4 0  9994
2 39417  97.6002 230.6164 0056982 251.8002 107.7003 14.81584894421221
CINEMA-3 (KHUSAT-2)     
1 39426U 13066L   21251.11776394  .00000269  00000-0  49335-4 0  9994
2 39426  97.7615 198.9980 0105416  60.6875 300.4815 14.69717859418061
TRITON-1                
1 39427U 13066M   21251.32156389  .00000427  00000-0  74880-4 0  9993
2 39427  97.7796 195.0531 0114712  86.2230 275.2083 14.68295586417578
DELFI-N3XT              
1 39428U 13066N   21251.09577749  .00000583  00000-0  98830-4 0  9999
2 39428  97.7836 193.3256 0121012  99.7634 261.7263 14.68091055417279
GOMX-1                  
1 39430U 13066Q   21251.54733616  .00000149  00000-0  36086-4 0  9992
2 39430  97.8094 169.8401 0149383 212.8127 146.3722 14.59666428415161
BRITE-PL1 (LEM)         
1 39431U 13066R   21250.59614875  .00000085  00000-0  28155-4 0  9999
2 39431  97.7386 123.8400 0202730  24.9377 336.1449 14.47163115411454
ICUBE-1                 
1 39432U 13066S   21251.51215922  .00000632  00000-0  68681-4 0  9999
2 39432  97.4740 265.1642 0033096 124.2080 236.2284 14.90971536423896
HUMSAT-D                
1 39433U 13066T   21251.02108230  .00000822  00000-0  83486-4 0  9990
2 39433  97.4673 271.8182 0031906 104.9007 255.5750 14.93016064424248
VELOX-PII               
1 39438U 13066Y   21250.47367937  .00000319  00000-0  49235-4 0  9999
2 39438  97.6506 221.3044 0068909 298.8488  60.5819 14.78277292419199
FIRST-MOVE              
1 39439U 13066Z   21250.61538618  .00000698  00000-0  90002-4 0  9990
2 39439  97.6047 232.3636 0062904 248.8689 110.5795 14.82738581420128
CUBEBUG-2 (LO-74)       
1 39440U 13066AA  21251.14295001  .00000431  00000-0  66407-4 0  9994
2 39440  97.6842 216.4421 0079031 328.2953  31.3511 14.76308579419828
NEE-02 KRYSAOR          
1 39441U 13066AB  21250.65427200  .00000314  00000-0  51492-4 0  9996
2 39441  97.6939 213.2857 0080997 341.5124  18.3146 14.75229657418337
FUNCUBE-1 (AO-73)       
1 39444U 13066AE  21250.84745204  .00000413  00000-0  56549-4 0  9995
2 39444  97.5904 233.3159 0056100 240.2727 119.2897 14.82507095419644
HINCUBE                 
1 39445U 13066AF  21250.66229450  .00000416  00000-0  57152-4 0  9990
2 39445  97.5919 232.9839 0056105 242.8449 116.7038 14.82337616419565
UWE-3                   
1 39446U 13066AG  21251.17662256  .00000415  00000-0  61214-4 0  9996
2 39446  97.6450 223.3173 0068153 290.1611  69.2278 14.78850681419324
AIST-1 (RS-41)          
1 39492U 13078C   21251.46472228  .00000227  00000-0  21982-4 0  9999
2 39492  82.4212 146.3493 0019107 325.1591  34.8376 14.88068321417848
SPROUT                  
1 39770U 14029E   21251.56257543  .00001159  00000-0  13041-3 0  9998
2 39770  97.9224   2.8027 0007719 299.8729  60.1701 14.88619335395707
UNISAT-6                
1 40012U 14033C   21250.82456431  .00000257  00000-0  45105-4 0  9994
2 40012  97.6718  88.8984 0058001 355.3984   4.6685 14.74368236388331
BUGSAT-1 (TITA)         
1 40014U 14033E   21251.23925991  .00000921  00000-0  87544-4 0  9995
2 40014  98.1177 233.7336 0030054 249.6889 110.1102 14.95828155393941
DUCHIFAT-1              
1 40021U 14033M   21250.72289981  .00000867  00000-0  92485-4 0  9997
2 40021  97.9757 191.8095 0011257 252.1582 107.8409 14.91455194392542
NANOSATC-BR1            
1 40024U 14033Q   21251.07437606  .00000495  00000-0  56595-4 0  9997
2 40024  97.9532 186.8712 0010571 257.1805 102.8231 14.90537297392426
QB50P1                  
1 40025U 14033R   21251.04874510  .00000457  00000-0  53922-4 0  9993
2 40025  97.9333 181.9600 0010855 267.2091  92.7883 14.89524024392222
DTUSAT-2                
1 40030U 14033W   21250.53898313  .00000458  00000-0  54630-4 0  9997
2 40030  97.9151 177.7691 0010307 265.2999  94.7041 14.89066017391530
QB50P2                  
1 40032U 14033Y   21251.04207483  .00000415  00000-0  50067-4 0  9991
2 40032  97.9157 178.2801 0010261 264.3457  95.6590 14.89025933392100
POLYITAN-1              
1 40042U 14033AJ  21250.57327147  .00000596  00000-0  68793-4 0  9994
2 40042  97.9428 182.3637 0013067 259.8284 100.1459 14.89344976392049
TIGRISAT                
1 40043U 14033AK  21251.51503863  .00000206  00000-0  37393-4 0  9991
2 40043  97.6680  90.9350 0059563 350.8972   9.1153 14.74578352388371
AISAT                   
1 40054U 14034B   21250.70450509  .00000632  00000-0  94101-4 0  9995
2 40054  98.3328  46.5924 0013632 136.8733 223.3547 14.78530293387684
CANX-4                  
1 40055U 14034C   21251.38063140  .00000174  00000-0  33874-4 0  9993
2 40055  98.3183  34.8654 0014412 170.9023 189.2449 14.75085395387161
CANX-5                  
1 40056U 14034D   21251.18237052  .00000178  00000-0  34489-4 0  9994
2 40056  98.3183  34.6466 0014418 171.7252 188.4196 14.75077742387134
VELOX-I                 
1 40057U 14034E   21251.52126556  .00000456  00000-0  70543-4 0  9999
2 40057  98.3384  48.5143 0011485 146.5687 213.6249 14.78257520387819
METEOR-M 2              
1 40069U 14037A   21251.47048369 -.00000021  00000-0  97014-5 0  9996
2 40069  98.4571 276.8234 0006862  65.8691 294.3211 14.20687576371823
DX1                     
1 40071U 14037C   21251.52406027  .00000151  00000-0  26731-4 0  9994
2 40071  98.4457 100.6597 0009061 135.2018 224.9929 14.81534176387594
UKUBE-1                 
1 40074U 14037F   21251.41497260  .00000417  00000-0  56446-4 0  9995
2 40074  98.4202 111.8602 0005164 108.8312 251.3459 14.84623389388219
FIREBIRD 3              
1 40377U 15003B   21251.47921027  .00005061  00000-0  18300-3 0  9990
2 40377  99.1105  50.1966 0115065 254.4292 104.4214 15.23018802365438
FIREBIRD 4              
1 40378U 15003C   21251.18997990  .00005404  00000-0  19471-3 0  9992
2 40378  99.1108  50.0008 0115134 255.1745 103.6709 15.23068935365393
GRIFEX                  
1 40379U 15003D   21251.44047160  .00002721  00000-0  11164-3 0  9997
2 40379  99.1072  38.8924 0126119 289.0532  69.7072 15.18500245364786
CP10 (EXOCUBE)          
1 40380U 15003E   21251.23686152  .00001906  00000-0  84042-4 0  9996
2 40380  99.1080  32.7287 0132171 309.8218  49.1436 15.16105358364363
DEORBITSAIL             
1 40719U 15032E   21251.10035063  .00000526  00000-0  80798-4 0  9990
2 40719  97.8163 133.4605 0015442 195.2929 164.7817 14.77461811332183
NUDT-PHONESAT           
1 40900U 15049B   21251.49609907  .00004512  00000-0  17226-3 0  9990
2 40900  97.4184 265.0940 0010915 197.4389 318.1849 15.27111599331496
XW-2A                   
1 40903U 15049E   21251.43827133  .00004864  00000-0  10136-3 0  9993
2 40903  97.2293 305.6659 0013766  75.0924  50.6987 15.45961404335616
XW-2C                   
1 40906U 15049H   21251.49429368  .00001212  00000-0  64817-4 0  9990
2 40906  97.4892 252.8291 0012722 258.9350 252.2851 15.16929668330155
XW-2D                   
1 40907U 15049J   21251.47075965  .00001522  00000-0  79726-4 0  9998
2 40907  97.4872 252.6295 0012094 254.4165 259.0753 15.17276781330184
LILACSAT-2              
1 40908U 15049K   21251.47783517  .00000933  00000-0  54127-4 0  9991
2 40908  97.5076 250.3588 0014068 273.7996 237.8856 15.14552532329792
XW-2E                   
1 40909U 15049L   21251.48565367  .00002088  00000-0  10048-3 0  9990
2 40909  97.4671 256.7597 0011448 237.4590 281.9304 15.19850155330549
XW-2F                   
1 40910U 15049M   21251.44742832  .00001956  00000-0  95676-4 0  9996
2 40910  97.4747 255.8061 0012549 237.8447 265.2067 15.19348386330324
XW-2B                   
1 40911U 15049N   21251.47799792  .00001508  00000-0  79206-4 0  9991
2 40911  97.4871 253.3055 0012036 255.9356 256.6499 15.17190886330073
KAITUO 1B               
1 40912U 15049P   21251.50411176  .00002276  00000-0  10281-3 0  9993
2 40912  97.4454 260.2457 0013197 205.4034 306.2546 15.21928533330827
TIANWANG 1A (TW-1A)     
1 40928U 15051D   21251.36775635  .00007638  00000-0  15361-3 0  9991
2 40928  97.0740 274.3119 0009041   2.5641 112.7294 15.46849773334506
LAPAN-A2                
1 40931U 15052B   21249.05101352  .00000517  00000-0 -17106-4 0  9998
2 40931   5.9983  37.5224 0012837 103.1338 257.0598 14.76685684321238
LQSAT                   
1 40958U 15057A   21251.47624836  .00000061  00000-0  16861-4 0  9998
2 40958  97.7953 304.6548 0018686 145.1388 215.1054 14.73193973318464
ATHENOXAT 1             
1 41168U 15077C   21251.57528041  .00003817  00000-0  15666-3 0  9999
2 41168  14.9904   9.7125 0010770 254.9564 204.1202 15.16062087317416
GALASSIA                
1 41170U 15077E   21250.67533459  .00003362  00000-0  13296-3 0  9993
2 41170  14.9901   6.8805 0012053 271.1880  88.7060 15.16231463317196
VELOX-II                
1 41171U 15077F   21251.12694938  .00002547  00000-0  10329-3 0  9993
2 41171  14.9916  64.3345 0008389 141.7726 218.3190 15.12779140316828
CHUBUSAT-2              
1 41338U 16012B   21251.48399301  .00000617  00000-0  40839-4 0  9999
2 41338  31.0040  17.8984 0013672 237.1980 122.7339 15.00594307305082
CHUBUSAT-3              
1 41339U 16012C   21251.43249439  .00000550  00000-0  35567-4 0  9999
2 41339  31.0130  15.3706 0013568 244.7163 115.2088 15.00736911305075
HORYU-4                 
1 41340U 16012D   21251.55872953  .00000938  00000-0  63238-4 0  9993
2 41340  31.0060 357.0958 0013808 278.7443  81.1629 15.01999468305294
